line1,line2,validFromUtcTime
1 00000U 00000E   26001.00000000  .00000000  00000-0  27772-4 0    01,2 00000  88.8751  60.3318 0009792 269.9374 180.1370 13.55230735    01,2026-01-01T00:00:00Z
1 00000U 00000E   26002.00000000  .00000000  00000-0  27772-4 0    02,2 00000  88.8751  60.2177 0009910 266.3490  19.6705 13.55239868    09,2026-01-02T00:00:00Z
